{"type":"FeatureCollection", "features": [
{"type":"Feature","geometry":{"type":"LineString","coordinates":[[-117.038,48.9925],[-117.0365,48.676],[-117.035,48.359],[-117.043,48.055],[-117.043,47.737],[-117.0415,47.4205],[-117.0415,47.0915],[-117.04,46.7695],[-117.0415,46.6035],[-117.037,46.3635],[-116.9895,46.32],[-116.942,46.2595],[-116.931,46.2105],[-116.909,46.1835],[-116.9185,46.142],[-116.9605,46.105],[-116.9025,46.0465],[-116.879,46.0015]]},"properties":{"kind":"state"}},
{"type":"Feature","geometry":{"type":"LineString","coordinates":[[-116.879,46.0015],[-117.2725,46.001],[-117.9165,46.0005],[-118.432,46],[-119.0025,45.9995],[-119.0445,45.9645],[-119.0935,45.949],[-119.3415,45.946],[-119.4795,45.9275],[-119.549,45.9295],[-119.5915,45.921],[-119.6625,45.872],[-119.934,45.838],[-120.0805,45.795],[-120.127,45.789],[-120.176,45.759],[-120.23,45.737],[-120.3005,45.7385],[-120.374,45.714],[-120.4255,45.721],[-120.47,45.71],[-120.621,45.731],[-120.6685,45.7035],[-120.7945,45.6775],[-120.8385,45.6525],[-120.9,45.642],[-120.968,45.6515],[-121.044,45.653],[-121.133,45.624],[-121.173,45.632],[-121.204,45.685],[-121.272,45.709],[-121.57,45.7295],[-121.7175,45.71],[-121.7925,45.7215],[-121.8625,45.701],[-121.971,45.6425],[-122.261,45.5665],[-122.3415,45.587],[-122.426,45.588],[-122.5395,45.622],[-122.595,45.6145],[-122.673,45.6255],[-122.739,45.663],[-122.7595,45.741],[-122.753,45.7825],[-122.78,45.82],[-122.774,45.8815],[-122.7925,45.9165],[-122.8065,45.978],[-122.85,46.0115],[-122.874,46.072],[-122.91,46.108],[-122.9665,46.1355],[-123.03,46.1495],[-123.112,46.1865],[-123.18,46.179]]},"properties":{"kind":"state"}},
{"type":"Feature","geometry":{"type":"LineString","coordinates":[[-116.048,48.9925],[-116.0485,48.523],[-116.049,48.0035],[-115.9855,47.9485],[-115.937,47.8945],[-115.855,47.844],[-115.8255,47.7815],[-115.7785,47.7545],[-115.7615,47.726],[-115.719,47.7],[-115.718,47.661],[-115.6765,47.6045],[-115.733,47.5605],[-115.6845,47.5215],[-115.6785,47.501],[-115.643,47.486],[-115.6655,47.464],[-115.708,47.4615],[-115.7175,47.4365],[-115.6615,47.423],[-115.586,47.3885],[-115.545,47.3565],[-115.51,47.3125],[-115.3415,47.2685],[-115.274,47.192],[-115.192,47.143],[-115.1505,47.093],[-115.061,47.0245],[-115.0515,46.9965],[-115.005,46.981],[-114.917,46.9175],[-114.9215,46.877],[-114.9055,46.842],[-114.8235,46.793],[-114.7665,46.7745],[-114.7665,46.7195],[-114.737,46.718],[-114.693,46.75],[-114.663,46.7485],[-114.6225,46.72],[-114.636,46.674],[-114.567,46.6445],[-114.5155,46.6535],[-114.4775,46.6485],[-114.4275,46.666],[-114.36,46.678],[-114.3295,46.6715],[-114.3235,46.634],[-114.347,46.5545],[-114.3405,46.531],[-114.398,46.505],[-114.3725,46.471],[-114.3755,46.4415],[-114.3985,46.4065],[-114.4095,46.342],[-114.4545,46.27],[-114.433,46.1915],[-114.4875,46.1765],[-114.4975,46.149],[-114.4515,46.109],[-114.483,46.056],[-114.4615,46.0005],[-114.411,45.988],[-114.4015,45.9665],[-114.416,45.935],[-114.389,45.896],[-114.417,45.861],[-114.495,45.8445],[-114.55,45.7835],[-114.5335,45.743],[-114.4935,45.705],[-114.498,45.6645],[-114.542,45.6265],[-114.529,45.6],[-114.545,45.5765],[-114.4505,45.559],[-114.408,45.5245],[-114.3295,45.4835],[-114.26,45.4975],[-114.2155,45.545],[-114.177,45.548],[-114.1145,45.5705],[-114.0685,45.6065],[-114.0525,45.6315],[-113.9965,45.659],[-114.0015,45.696],[-113.9575,45.6925],[-113.8955,45.6585],[-113.8895,45.6375],[-113.819,45.6145],[-113.7895,45.584],[-113.8105,45.5355],[-113.7675,45.5145],[-113.7515,45.477],[-113.7645,45.438],[-113.754,45.4105],[-113.7145,45.38],[-113.7115,45.305],[-113.6705,45.2775],[-113.6665,45.256],[-113.5935,45.2035],[-113.547,45.124],[-113.513,45.1245],[-113.4585,45.059],[-113.43,45.001],[-113.437,44.9695],[-113.4815,44.9335],[-113.44,44.8715],[-113.413,44.8475],[-113.344,44.82],[-113.324,44.792],[-113.25,44.819],[-113.1835,44.8045],[-113.1055,44.7415],[-113.045,44.652],[-113.068,44.614],[-113.0275,44.553],[-112.996,44.537],[-113.008,44.5015],[-112.9955,44.465],[-112.923,44.42],[-112.8785,44.41],[-112.8445,44.3795],[-112.808,44.3935],[-112.8275,44.4255],[-112.757,44.486],[-112.6805,44.5055],[-112.524,44.488],[-112.503,44.476],[-112.4545,44.478],[-112.4095,44.459],[-112.36,44.4715],[-112.3225,44.5405],[-112.2335,44.5685],[-112.204,44.5555],[-112.144,44.552],[-112.0815,44.5385],[-111.87,44.5625],[-111.7995,44.5285],[-111.727,44.544],[-111.682,44.566],[-111.5585,44.5665],[-111.503,44.5475],[-111.5075,44.606],[-111.4945,44.644],[-111.451,44.666],[-111.4655,44.705],[-111.4515,44.722],[-111.354,44.7525],[-111.308,44.7325],[-111.2455,44.6525],[-111.219,44.6335],[-111.21,44.5945],[-111.171,44.574],[-111.1115,44.5155],[-111.0515,44.498]]},"properties":{"kind":"state"}},
{"type":"Feature","geometry":{"type":"LineString","coordinates":[[-111.0515,44.498],[-111.051,44.1855],[-111.051,43.8735],[-111.051,43.405],[-111.0505,43.0925],[-111.0505,42.7805],[-111.0505,42.468],[-111.05,42]]},"properties":{"kind":"state"}},
{"type":"Feature","geometry":{"type":"LineString","coordinates":[[-111.05,42],[-111.4245,42],[-111.9855,42],[-112.3595,42],[-112.9205,42],[-113.4815,42],[-114.0425,42]]},"properties":{"kind":"state"}},
{"type":"Feature","geometry":{"type":"LineString","coordinates":[[-114.0425,42],[-114.6,42],[-114.972,42],[-115.3435,42],[-115.7155,42],[-116.087,41.9995],[-116.645,41.9995],[-117.0165,41.9995]]},"properties":{"kind":"state"}},
{"type":"Feature","geometry":{"type":"LineString","coordinates":[[-117.0165,41.9995],[-117.0175,42.412],[-117.0185,42.928],[-117.0195,43.3405],[-117.02,43.785],[-117.0315,43.8285],[-116.9935,43.8575],[-116.971,43.8935],[-116.934,44.0285],[-116.9685,44.0835],[-116.9585,44.1085],[-116.9205,44.1135],[-116.897,44.186],[-116.956,44.2185],[-116.986,44.272],[-117.044,44.2595],[-117.086,44.29],[-117.113,44.2885],[-117.1405,44.2645],[-117.195,44.2975],[-117.195,44.35],[-117.2155,44.395],[-117.1935,44.4555],[-117.204,44.4825],[-117.18,44.5135],[-117.1495,44.525],[-117.1125,44.573],[-117.104,44.612],[-117.04,44.719],[-117.0105,44.75],[-116.95,44.7785],[-116.9175,44.8025],[-116.864,44.866],[-116.833,44.92],[-116.8205,44.9875],[-116.8345,45.015],[-116.8235,45.036],[-116.7175,45.1515],[-116.697,45.19],[-116.679,45.2515],[-116.656,45.2845],[-116.649,45.3475],[-116.6015,45.3945],[-116.5865,45.428],[-116.539,45.471],[-116.506,45.5425],[-116.463,45.582],[-116.4635,45.6425],[-116.499,45.691],[-116.53,45.7515],[-116.5575,45.772],[-116.5995,45.778],[-116.6575,45.8035],[-116.688,45.8265],[-116.7595,45.838],[-116.779,45.8665],[-116.8385,45.91],[-116.879,46.0015]]},"properties":{"kind":"state"}},
{"type":"Feature","geometry":{"type":"LineString","coordinates":[[-104.0475,48.9925],[-104.0465,48.6355],[-104.0465,48.302],[-104.0465,47.968],[-104.0465,47.6345],[-104.0465,47.134],[-104.0465,46.6335],[-104.0465,46.2995],[-104.045,45.942]]},"properties":{"kind":"state"}},
{"type":"Feature","geometry":{"type":"LineString","coordinates":[[-104.045,45.942],[-104.042,45.508],[-104.0385,45.07],[-104.0395,45],[-104.0565,45]]},"properties":{"kind":"state"}},
{"type":"Feature","geometry":{"type":"LineString","coordinates":[[-104.0565,45],[-104.3635,45],[-104.7985,45],[-105.3425,45],[-105.778,45],[-106.322,45],[-106.757,45],[-107.1925,45],[-107.845,45],[-108.2805,45],[-108.7155,45],[-109.2595,45],[-109.912,45],[-110.2385,45],[-110.674,45],[-111.051,45],[-111.0515,44.498]]},"properties":{"kind":"state"}},
{"type":"Feature","geometry":{"type":"LineString","coordinates":[[-97.226,48.9925],[-97.229,48.9685],[-97.1775,48.842],[-97.148,48.788],[-97.141,48.7495],[-97.1095,48.6985],[-97.101,48.6505],[-97.1485,48.5765],[-97.157,48.534],[-97.123,48.4285],[-97.144,48.3765],[-97.115,48.281],[-97.13,48.212],[-97.1295,48.1705],[-97.1065,48.097],[-97.0625,48.023],[-97.035,47.952],[-97,47.924],[-97.012,47.8775],[-96.992,47.815],[-96.9515,47.78],[-96.932,47.732],[-96.8945,47.679],[-96.863,47.5815],[-96.8625,47.52],[-96.853,47.4885],[-96.869,47.417],[-96.8425,47.3865],[-96.85,47.259],[-96.828,47.167],[-96.8355,47.129],[-96.822,47.088],[-96.828,47.0025],[-96.803,46.9415],[-96.759,46.921],[-96.787,46.872],[-96.7985,46.778],[-96.781,46.721],[-96.7945,46.6425],[-96.753,46.597],[-96.7395,46.519],[-96.7465,46.499],[-96.7185,46.471],[-96.7085,46.4335],[-96.6505,46.3685],[-96.6015,46.324],[-96.598,46.238],[-96.588,46.1985],[-96.565,46.1715],[-96.5565,46.103],[-96.576,46.0165],[-96.5565,45.942]]},"properties":{"kind":"state"}},
{"type":"Feature","geometry":{"type":"LineString","coordinates":[[-96.5565,45.942],[-97.0225,45.942],[-97.488,45.942],[-98.187,45.942],[-98.653,45.942],[-99.119,45.942],[-99.818,45.942],[-100.2835,45.942],[-100.7495,45.942],[-101.2155,45.942],[-101.6815,45.942],[-102.1475,45.942],[-102.6135,45.942],[-103.079,45.942],[-103.545,45.942],[-104.045,45.942]]},"properties":{"kind":"state"}},
{"type":"Feature","geometry":{"type":"LineString","coordinates":[[-92.111,46.768],[-92.157,46.7295],[-92.193,46.715],[-92.2075,46.674],[-92.2355,46.6585],[-92.2915,46.6595],[-92.292,46.321],[-92.2925,46.0835],[-92.338,46.063],[-92.3635,46.0275],[-92.429,46.0325],[-92.4655,45.9975],[-92.522,45.992],[-92.5665,45.957],[-92.6005,45.951],[-92.704,45.913],[-92.772,45.834],[-92.7675,45.805],[-92.7955,45.7755],[-92.882,45.716],[-92.895,45.687],[-92.9015,45.6115],[-92.883,45.576],[-92.7895,45.57],[-92.751,45.559],[-92.7175,45.491],[-92.6675,45.4455],[-92.6675,45.4085],[-92.6965,45.374],[-92.7085,45.3325],[-92.751,45.2995],[-92.7635,45.2645],[-92.773,45.1875],[-92.751,45.149],[-92.7555,45.1065],[-92.8025,45.078],[-92.772,45.011],[-92.7585,44.9255],[-92.779,44.8915],[-92.7785,44.82],[-92.82,44.758],[-92.7315,44.7115],[-92.661,44.6605],[-92.628,44.6275],[-92.5845,44.608],[-92.429,44.5895],[-92.394,44.5795],[-92.331,44.533],[-92.305,44.49],[-92.2725,44.466],[-92.156,44.4515],[-92.1025,44.437],[-91.95,44.3355],[-91.912,44.289],[-91.837,44.182],[-91.7785,44.1495],[-91.6625,44.0735],[-91.6375,44.0655],[-91.541,44.0655],[-91.4785,44.0295],[-91.426,44.0225],[-91.361,43.945],[-91.295,43.919],[-91.2795,43.8735],[-91.281,43.821],[-91.249,43.769],[-91.2425,43.7215],[-91.255,43.667],[-91.243,43.537],[-91.25,43.501]]},"properties":{"kind":"state"}},
{"type":"Feature","geometry":{"type":"LineString","coordinates":[[-91.25,43.501],[-91.9005,43.501],[-92.226,43.501],[-92.876,43.5005],[-93.2015,43.5005],[-93.852,43.5005],[-94.177,43.5005],[-94.8275,43.5005],[-95.1525,43.5005],[-95.803,43.5],[-96.4535,43.5]]},"properties":{"kind":"state"}},
{"type":"Feature","geometry":{"type":"LineString","coordinates":[[-96.4535,43.5],[-96.4535,43.9395],[-96.4535,44.379],[-96.4535,44.5985],[-96.4535,45.038],[-96.4535,45.2965],[-96.493,45.3475],[-96.5665,45.3935],[-96.688,45.409],[-96.708,45.4215],[-96.7665,45.512],[-96.863,45.601],[-96.8465,45.643],[-96.759,45.6985],[-96.686,45.7285],[-96.638,45.7635],[-96.581,45.856],[-96.572,45.917],[-96.5565,45.942]]},"properties":{"kind":"state"}},
{"type":"Feature","geometry":{"type":"LineString","coordinates":[[-83.465,41.733],[-83.64,41.729],[-83.8895,41.7195],[-84.0545,41.7165],[-84.303,41.7075],[-84.641,41.702],[-84.806,41.697]]},"properties":{"kind":"state"}},
{"type":"Feature","geometry":{"type":"LineString","coordinates":[[-84.806,41.697],[-84.806,41.7585],[-85.262,41.759],[-85.8825,41.759],[-86.2705,41.7595],[-86.843,41.7595]]},"properties":{"kind":"state"}},
{"type":"Feature","geometry":{"type":"LineString","coordinates":[[-87.5995,45.105],[-87.6535,45.121],[-87.7265,45.183],[-87.7265,45.244],[-87.682,45.3245],[-87.655,45.3615],[-87.695,45.3875],[-87.7685,45.3595],[-87.8405,45.357],[-87.882,45.3775],[-87.8685,45.44],[-87.812,45.4845],[-87.804,45.51],[-87.8215,45.5615],[-87.7915,45.5955],[-87.8205,45.6525],[-87.8025,45.687],[-87.835,45.715],[-87.9095,45.7605],[-87.97,45.7665],[-87.998,45.787],[-88.0725,45.7875],[-88.1025,45.798],[-88.122,45.8265],[-88.0865,45.868],[-88.115,45.9245],[-88.1875,45.9595],[-88.2275,45.9585],[-88.278,45.973],[-88.336,45.9775],[-88.379,45.9965],[-88.418,45.9935],[-88.5375,46.026],[-88.642,46.008],[-88.7245,46.034],[-88.762,46.0285],[-88.8375,46.0355],[-89.119,46.148],[-89.5355,46.228],[-90.1185,46.3405],[-90.205,46.486],[-90.2305,46.5085],[-90.318,46.5355],[-90.334,46.5545],[-90.3925,46.548],[-90.4095,46.589]]},"properties":{"kind":"state"}},
{"type":"Feature","geometry":{"type":"LineString","coordinates":[[-80.52,41.9845],[-80.52,41.695],[-80.52,41.171],[-80.52,40.647]]},"properties":{"kind":"state"}},
{"type":"Feature","geometry":{"type":"LineString","coordinates":[[-80.52,40.647],[-80.5805,40.619],[-80.6485,40.6195],[-80.677,40.589],[-80.6365,40.537],[-80.6015,40.4715],[-80.627,40.4095],[-80.6085,40.3795],[-80.6005,40.3235],[-80.6145,40.2865],[-80.657,40.2555],[-80.687,40.193],[-80.6945,40.1575],[-80.7245,40.1045],[-80.739,40.061],[-80.7415,39.997],[-80.7655,39.9535],[-80.7585,39.9295],[-80.8065,39.9095],[-80.7945,39.877],[-80.828,39.831],[-80.841,39.7905],[-80.871,39.771],[-80.839,39.7335],[-80.841,39.701],[-80.8625,39.6825],[-80.875,39.629],[-80.944,39.598],[-81.0555,39.53],[-81.126,39.4535],[-81.1655,39.4425],[-81.227,39.3985],[-81.31,39.379],[-81.345,39.3535],[-81.3885,39.362],[-81.4205,39.4065],[-81.479,39.4005],[-81.5545,39.344],[-81.5695,39.2875],[-81.6825,39.271],[-81.698,39.237],[-81.746,39.1935],[-81.755,39.1655],[-81.7545,39.1055],[-81.819,39.076],[-81.777,39.035],[-81.78,38.981],[-81.7645,38.949],[-81.7835,38.9325],[-81.835,38.9495],[-81.8485,38.9135],[-81.9015,38.874],[-81.9275,38.893],[-81.904,38.9365],[-81.924,38.9785],[-82.003,39.0215],[-82.0585,39.003],[-82.092,38.9685],[-82.1365,38.899],[-82.1435,38.858],[-82.173,38.8085],[-82.2085,38.786],[-82.2115,38.7625],[-82.1875,38.7155],[-82.1925,38.6655],[-82.1775,38.612],[-82.1925,38.5955],[-82.263,38.5975],[-82.288,38.5665],[-82.3095,38.4785],[-82.3315,38.4435],[-82.4245,38.433],[-82.509,38.409],[-82.5525,38.4055],[-82.5895,38.4195]]},"properties":{"kind":"state"}},
{"type":"Feature","geometry":{"type":"LineString","coordinates":[[-82.5895,38.4195],[-82.626,38.4775],[-82.698,38.5355],[-82.8265,38.5865],[-82.856,38.625],[-82.88,38.691],[-82.8865,38.745],[-82.924,38.7485],[-82.985,38.724],[-83.031,38.716],[-83.075,38.6795],[-83.102,38.6715],[-83.1335,38.628],[-83.1725,38.618],[-83.242,38.6235],[-83.305,38.6015],[-83.3685,38.66],[-83.447,38.672],[-83.4915,38.699],[-83.5345,38.7075],[-83.605,38.6895],[-83.6505,38.636],[-83.7145,38.6385],[-83.754,38.66],[-83.8215,38.7135],[-83.866,38.762],[-83.9725,38.7895],[-84.084,38.778],[-84.1955,38.8105],[-84.227,38.841],[-84.2315,38.8855],[-84.2475,38.9195],[-84.2835,38.95],[-84.2965,39],[-84.322,39.0295],[-84.408,39.057],[-84.444,39.102],[-84.466,39.1115],[-84.5085,39.105],[-84.5945,39.074],[-84.637,39.0775],[-84.721,39.143],[-84.8235,39.0975]]},"properties":{"kind":"state"}},
{"type":"Feature","geometry":{"type":"LineString","coordinates":[[-84.8235,39.0975],[-84.82,39.423],[-84.8165,39.748],[-84.814,39.992],[-84.809,40.4805],[-84.8055,40.8055],[-84.8005,41.2935],[-84.804,41.3685],[-84.806,41.697]]},"properties":{"kind":"state"}},
{"type":"Feature","geometry":{"type":"LineString","coordinates":[[-79.763,42.2685],[-79.763,42],[-79.4545,42],[-78.9105,41.9995],[-78.502,41.999],[-78.094,41.999],[-77.686,41.999],[-77.142,41.9985],[-76.5975,41.998],[-76.3255,41.998],[-75.7815,41.9975],[-75.339,41.9975],[-75.3395,41.984],[-75.263,41.948],[-75.249,41.8825],[-75.2325,41.873],[-75.1775,41.8795],[-75.1155,41.855],[-75.079,41.828],[-75.106,41.797],[-75.056,41.775],[-75.0515,41.753],[-75.0715,41.726],[-75.0575,41.688],[-75.064,41.6155],[-74.998,41.514],[-74.967,41.487],[-74.9225,41.4785],[-74.8865,41.4485],[-74.813,41.447],[-74.781,41.429],[-74.749,41.4345],[-74.7045,41.376],[-74.699,41.3565]]},"properties":{"kind":"state"}},
{"type":"Feature","geometry":{"type":"LineString","coordinates":[[-74.699,41.3565],[-74.78,41.328],[-74.8445,41.273],[-74.8865,41.181],[-74.938,41.1275],[-74.9825,41.102],[-75.027,41.047],[-75.0825,41.026],[-75.1395,40.982],[-75.061,40.8915],[-75.0675,40.855],[-75.0935,40.838],[-75.1055,40.7955],[-75.1605,40.7905],[-75.1885,40.7585],[-75.1805,40.7425],[-75.198,40.7005],[-75.191,40.678],[-75.1955,40.619],[-75.182,40.5705],[-75.1395,40.5705],[-75.089,40.5585],[-75.0715,40.532],[-75.0645,40.454],[-75.036,40.415],[-75.0135,40.4035],[-74.9745,40.4145],[-74.9475,40.359],[-74.8955,40.3235],[-74.818,40.2415],[-74.7395,40.185],[-74.7285,40.163],[-74.77,40.13],[-74.838,40.115],[-74.8725,40.091],[-74.936,40.0705],[-74.975,40.0365],[-75.0235,40.0165]]},"properties":{"kind":"state"}},
{"type":"Feature","geometry":{"type":"LineString","coordinates":[[-75.4245,39.8065],[-75.495,39.833],[-75.6015,39.838],[-75.678,39.815],[-75.731,39.7825],[-75.7755,39.7225],[-75.7885,39.7215]]},"properties":{"kind":"state"}},
{"type":"Feature","geometry":{"type":"LineString","coordinates":[[-75.7885,39.7215],[-76.3615,39.7215],[-76.708,39.7215],[-77.1695,39.7215],[-77.631,39.7215],[-77.862,39.7215],[-78.439,39.7215],[-78.785,39.7215],[-79.1315,39.7215],[-79.4775,39.722]]},"properties":{"kind":"state"}},
{"type":"Feature","geometry":{"type":"LineString","coordinates":[[-79.4775,39.722],[-79.868,39.7215],[-80.5195,39.7215],[-80.5195,40.0805],[-80.52,40.4015],[-80.52,40.647]]},"properties":{"kind":"state"}},
{"type":"Feature","geometry":{"type":"LineString","coordinates":[[-73.3515,45.0045],[-73.3375,44.9555],[-73.3485,44.9125],[-73.3745,44.8745],[-73.3755,44.844],[-73.338,44.801],[-73.36,44.6905],[-73.376,44.6525],[-73.3665,44.574],[-73.31,44.5],[-73.2945,44.4695],[-73.2965,44.4305],[-73.3325,44.364],[-73.319,44.304],[-73.33,44.235],[-73.3735,44.2105],[-73.39,44.161],[-73.4385,44.053],[-73.41,44.006],[-73.401,43.92],[-73.3795,43.8815],[-73.3865,43.827],[-73.3655,43.798],[-73.3685,43.7475],[-73.4205,43.6485],[-73.4235,43.5945],[-73.381,43.5805],[-73.357,43.622],[-73.3015,43.624],[-73.277,43.578],[-73.247,43.552],[-73.257,43.2025],[-73.2665,42.8635],[-73.288,42.7975],[-73.2655,42.7455]]},"properties":{"kind":"state"}},
{"type":"Feature","geometry":{"type":"LineString","coordinates":[[-73.2655,42.7455],[-73.4355,42.2785],[-73.507,42.079],[-73.4805,42.0545]]},"properties":{"kind":"state"}},
{"type":"Feature","geometry":{"type":"LineString","coordinates":[[-73.4805,42.0545],[-73.5195,41.5915],[-73.5445,41.295],[-73.484,41.218],[-73.723,41.1035],[-73.643,41.001]]},"properties":{"kind":"state"}},
{"type":"Feature","geometry":{"type":"LineString","coordinates":[[-73.907,40.991],[-74.402,41.219],[-74.699,41.3565]]},"properties":{"kind":"state"}},
{"type":"Feature","geometry":{"type":"LineString","coordinates":[[-71.506,45.0135],[-71.532,45],[-71.528,44.9505],[-71.5055,44.9195],[-71.5145,44.895],[-71.606,44.8015],[-71.635,44.7405],[-71.55,44.5965],[-71.5935,44.57],[-71.5985,44.515],[-71.652,44.4765],[-71.678,44.446],[-71.7915,44.3985],[-71.8405,44.357],[-71.8835,44.345],[-71.9835,44.339],[-72.02,44.3175],[-72.0425,44.2815],[-72.0495,44.231],[-72.049,44.143],[-72.0695,44.0725],[-72.118,44.001],[-72.1005,43.9735],[-72.181,43.885],[-72.189,43.842],[-72.2135,43.7845],[-72.3065,43.72],[-72.325,43.6335],[-72.347,43.5965],[-72.3815,43.572],[-72.398,43.5315],[-72.4055,43.3605],[-72.4035,43.3],[-72.4335,43.263],[-72.4355,43.2205],[-72.453,43.169],[-72.4495,43.108],[-72.4805,42.989],[-72.522,42.9755],[-72.5355,42.9145],[-72.5555,42.878],[-72.55,42.833],[-72.5355,42.812],[-72.4735,42.7585],[-72.467,42.7295]]},"properties":{"kind":"state"}},
{"type":"Feature","geometry":{"type":"LineString","coordinates":[[-72.467,42.7295],[-72.909,42.7415],[-73.2655,42.7455]]},"properties":{"kind":"state"}},
{"type":"Feature","geometry":{"type":"LineString","coordinates":[[-71.085,45.3045],[-71.05,44.823],[-71.0305,44.5555],[-70.999,44.1275],[-70.958,43.562],[-70.9675,43.4905],[-70.9635,43.4505],[-70.9765,43.415],[-70.9725,43.383],[-70.8665,43.271],[-70.817,43.24],[-70.825,43.1615],[-70.8065,43.1365],[-70.744,43.084]]},"properties":{"kind":"state"}},
{"type":"Feature","geometry":{"type":"LineString","coordinates":[[-70.8145,42.8775],[-70.85,42.8705],[-70.9255,42.8865],[-71.0225,42.8545],[-71.0835,42.817],[-71.1515,42.8095],[-71.196,42.752],[-71.2455,42.7365],[-71.3065,42.701],[-71.8265,42.7135],[-72.467,42.7295]]},"properties":{"kind":"state"}},
{"type":"Feature","geometry":{"type":"LineString","coordinates":[[-114.7245,32.713],[-114.683,32.748],[-114.578,32.73],[-114.536,32.738],[-114.522,32.807],[-114.472,32.842],[-114.458,32.8765],[-114.4735,32.9405],[-114.4735,32.9855],[-114.5015,33.0195],[-114.5365,33.0355],[-114.6275,33.041],[-114.667,33.054],[-114.6965,33.0895],[-114.673,33.205],[-114.683,33.263],[-114.7215,33.3065],[-114.714,33.349],[-114.698,33.3685],[-114.7225,33.4],[-114.7175,33.4165],[-114.6685,33.4195],[-114.626,33.437],[-114.5795,33.52],[-114.536,33.562],[-114.5345,33.617],[-114.5225,33.6275],[-114.5175,33.6845],[-114.488,33.725],[-114.503,33.7545],[-114.4945,33.788],[-114.5105,33.804],[-114.516,33.869],[-114.49,33.8905],[-114.522,33.9415],[-114.516,33.9635],[-114.4605,33.9995],[-114.417,34.0485],[-114.4085,34.091],[-114.382,34.1235],[-114.346,34.133],[-114.244,34.1935],[-114.2245,34.198],[-114.1925,34.232],[-114.1275,34.2795],[-114.125,34.328],[-114.279,34.421],[-114.3355,34.4635],[-114.364,34.467],[-114.377,34.5005],[-114.367,34.53],[-114.3835,34.561],[-114.4195,34.596],[-114.429,34.643],[-114.4945,34.7535],[-114.5425,34.768],[-114.557,34.815],[-114.58,34.857],[-114.617,34.8795],[-114.628,35.0035]]},"properties":{"kind":"state"}},
{"type":"Feature","geometry":{"type":"LineString","coordinates":[[-114.628,35.0035],[-114.639,35.048],[-114.6155,35.073],[-114.6355,35.137],[-114.582,35.1515],[-114.5725,35.191],[-114.577,35.2525],[-114.59,35.3005],[-114.591,35.353],[-114.6325,35.4285],[-114.6675,35.517],[-114.6465,35.5655],[-114.645,35.6305],[-114.6865,35.7195],[-114.6945,35.767],[-114.6935,35.8225],[-114.667,35.874],[-114.7145,35.936],[-114.7395,35.986],[-114.7245,36.028],[-114.721,36.0925],[-114.703,36.112],[-114.637,36.1415],[-114.555,36.1605],[-114.4355,36.1275],[-114.386,36.1465],[-114.3475,36.14],[-114.3195,36.111],[-114.2755,36.0455],[-114.2335,36.0245],[-114.1585,36.0295],[-114.124,36.046],[-114.084,36.1575],[-114.0455,36.2005],[-114.042,36.22],[-114.041,36.7015],[-114.04,37.003]]},"properties":{"kind":"state"}},
{"type":"Feature","geometry":{"type":"LineString","coordinates":[[-114.04,37.003],[-113.416,37.0025],[-113.104,37.0025],[-112.4795,37.002],[-112.0115,37.002],[-111.5435,37.0015],[-111.2315,37.001],[-110.763,37.001],[-110.295,37.0005],[-109.827,37.0005],[-109.3585,37],[-109.0465,37]]},"properties":{"kind":"state"}},
{"type":"Feature","geometry":{"type":"LineString","coordinates":[[-109.0465,37],[-109.0465,36.6455],[-109.0465,36.2915],[-109.047,35.76],[-109.047,35.229],[-109.047,34.8745],[-109.047,34.5205],[-109.047,33.989],[-109.047,33.458],[-109.047,32.9265],[-109.0475,32.395],[-109.0475,32.041],[-109.0475,31.687],[-109.0475,31.3275]]},"properties":{"kind":"state"}},
{"type":"Feature","geometry":{"type":"LineString","coordinates":[[-124.2145,41.9995],[-123.924,41.9995],[-123.401,41.9995],[-123.1395,41.9995],[-122.6165,41.9995],[-122.355,41.9995],[-121.8315,41.9995],[-121.3085,41.9995],[-120.7855,41.9995],[-120.2625,41.9995],[-120.001,41.9995]]},"properties":{"kind":"state"}},
{"type":"Feature","geometry":{"type":"LineString","coordinates":[[-120.001,41.9995],[-120.0005,41.45],[-120.0005,41.0835],[-120.0005,40.7175],[-120.0005,40.351],[-120.0005,39.9845],[-120,39.618],[-120,39.252],[-120,38.999],[-119.766,38.8355],[-119.2975,38.509],[-118.829,38.182],[-118.3605,37.855],[-118.126,37.6915],[-117.943,37.5535],[-117.576,37.278],[-117.393,37.14],[-117.026,36.8645],[-116.6595,36.589],[-116.499,36.4625],[-116.1775,36.2105],[-115.8565,35.958],[-115.535,35.7055],[-115.194,35.438],[-115,35.289],[-114.628,35.0035]]},"properties":{"kind":"state"}},
{"type":"Feature","geometry":{"type":"LineString","coordinates":[[-109.0465,37],[-108.48,37],[-107.913,37],[-107.535,37],[-107.1575,37],[-106.5905,37],[-106.2125,37],[-105.8345,37],[-105.457,37],[-105.079,37],[-104.512,37],[-104.1345,37],[-103.5675,37],[-103.001,37]]},"properties":{"kind":"state"}},
{"type":"Feature","geometry":{"type":"LineString","coordinates":[[-103.001,37],[-103,36.5]]},"properties":{"kind":"state"}},
{"type":"Feature","geometry":{"type":"LineString","coordinates":[[-103,36.5],[-103.042,36.4995],[-103.043,36.172],[-103.0445,35.894],[-103.046,35.616],[-103.0475,35.338],[-103.049,35.06],[-103.0505,34.782],[-103.052,34.504],[-103.0535,34.226],[-103.055,33.948],[-103.0575,33.531],[-103.0605,32.975],[-103.062,32.697],[-103.064,32.2795],[-103.0655,32.0015],[-103.51,32.0015],[-103.954,32.0015],[-104.3985,32.001],[-104.8425,32.001],[-105.065,32.001],[-105.509,32.001],[-105.9535,32.0005],[-106.3975,32.0005],[-106.662,32.0005],[-106.6405,31.9475],[-106.625,31.8855],[-106.5915,31.827],[-106.553,31.812],[-106.506,31.7705]]},"properties":{"kind":"state"}},
{"type":"Feature","geometry":{"type":"LineString","coordinates":[[-103,36.5],[-102.7295,36.5],[-102.32,36.5],[-101.8075,36.5],[-101.2605,36.5],[-100.748,36.5],[-100.3385,36.5],[-100.0025,36.5],[-100.002,36.1095],[-100.0015,35.7685],[-100.001,35.541],[-100,35.0865],[-99.9995,34.5755],[-99.9385,34.582],[-99.882,34.565],[-99.713,34.431],[-99.681,34.3945],[-99.6015,34.385],[-99.5475,34.4125],[-99.499,34.407],[-99.44,34.3825],[-99.4015,34.3865],[-99.3875,34.4515],[-99.3625,34.4625],[-99.3235,34.424],[-99.2655,34.4115],[-99.24,34.3625],[-99.192,34.322],[-99.1995,34.3025],[-99.193,34.232],[-99.1535,34.217],[-99.107,34.2185],[-99.0285,34.2045],[-98.9755,34.216],[-98.953,34.2115],[-98.8775,34.171],[-98.72,34.1365],[-98.653,34.1595],[-98.6185,34.163],[-98.5745,34.1515],[-98.5585,34.128],[-98.4905,34.075],[-98.4165,34.079],[-98.3685,34.1375],[-98.3435,34.1435],[-98.2095,34.129],[-98.1065,34.1495],[-98.0905,34.1385],[-98.0955,34.082],[-98.0885,34.028],[-98.0505,34.012],[-97.966,33.9935],[-97.9465,33.977],[-97.959,33.893],[-97.9265,33.873],[-97.884,33.8615],[-97.84,33.868],[-97.801,33.888],[-97.715,33.96],[-97.68,33.9835],[-97.6405,33.9945],[-97.603,33.979],[-97.5945,33.925],[-97.571,33.899],[-97.5065,33.9025],[-97.4695,33.892],[-97.4525,33.8355],[-97.4365,33.827],[-97.3715,33.8305],[-97.2935,33.8755],[-97.267,33.8555],[-97.2305,33.9025],[-97.212,33.91],[-97.1775,33.869],[-97.2015,33.8275],[-97.2005,33.7865],[-97.1675,33.7375],[-97.1125,33.726],[-97.094,33.7425],[-97.0785,33.808],[-97.04,33.8535],[-97.0175,33.8585],[-96.9865,33.9025],[-96.985,33.94],[-96.967,33.952],[-96.9145,33.956],[-96.889,33.9415],[-96.8785,33.9035],[-96.8555,33.875],[-96.7985,33.8735],[-96.7485,33.849],[-96.692,33.8545],[-96.6495,33.916],[-96.601,33.905],[-96.6025,33.8685],[-96.582,33.8385],[-96.5135,33.8145],[-96.4965,33.7865],[-96.4105,33.7865],[-96.3585,33.7255],[-96.329,33.702],[-96.301,33.7185],[-96.2895,33.763],[-96.2025,33.7635],[-96.184,33.7735],[-96.1565,33.821],[-96.1055,33.842],[-96.04,33.8435],[-96.0065,33.8555],[-95.938,33.8955],[-95.8605,33.854],[-95.7725,33.862],[-95.7695,33.8965],[-95.7115,33.8965],[-95.647,33.93],[-95.623,33.9245],[-95.598,33.952],[-95.548,33.9255],[-95.537,33.89],[-95.5055,33.8895],[-95.4405,33.8705],[-95.357,33.868],[-95.2685,33.9045],[-95.2555,33.948],[-95.2205,33.963],[-95.1545,33.944],[-95.1285,33.9195],[-95.097,33.913],[-95.0475,33.876],[-94.9815,33.8615],[-94.8725,33.756],[-94.7555,33.7335],[-94.708,33.6915],[-94.6685,33.6955],[-94.636,33.6775],[-94.61,33.681],[-94.533,33.65],[-94.484,33.6475]]},"properties":{"kind":"state"}},
{"type":"Feature","geometry":{"type":"LineString","coordinates":[[-94.484,33.6475],[-94.467,33.644],[-94.45,33.605],[-94.407,33.5845],[-94.3875,33.562],[-94.328,33.558],[-94.3,33.595],[-94.235,33.5745],[-94.193,33.594],[-94.1595,33.5775],[-94.101,33.5815],[-94.0475,33.554],[-94.0415,33.011]]},"properties":{"kind":"state"}},
{"type":"Feature","geometry":{"type":"LineString","coordinates":[[-94.0415,33.011],[-94.042,32.659],[-94.0425,32.4245],[-94.043,31.998],[-93.998,31.9625],[-93.9775,31.93],[-93.904,31.883],[-93.84,31.7905],[-93.8305,31.743],[-93.8145,31.713],[-93.827,31.588],[-93.784,31.5415],[-93.73,31.519],[-93.7475,31.4855],[-93.71,31.456],[-93.6955,31.4105],[-93.655,31.3705],[-93.678,31.3305],[-93.6685,31.3095],[-93.6285,31.2765],[-93.5925,31.1925],[-93.5485,31.1925],[-93.546,31.1315],[-93.5595,31.097],[-93.515,31.042],[-93.5265,31.0275],[-93.5775,31.0085],[-93.538,30.944],[-93.574,30.8985],[-93.5665,30.857],[-93.574,30.8195],[-93.61,30.762],[-93.618,30.714],[-93.662,30.6765],[-93.687,30.6005],[-93.7305,30.5655],[-93.705,30.4815],[-93.7065,30.455],[-93.7525,30.3925],[-93.752,30.3295],[-93.715,30.2875],[-93.723,30.235],[-93.704,30.144],[-93.7235,30.101],[-93.717,30.08],[-93.776,30.022],[-93.7985,29.9855]]},"properties":{"kind":"state"}},
{"type":"Feature","geometry":{"type":"LineString","coordinates":[[-94.0415,33.011],[-93.6835,33.0115],[-93.1475,33.012],[-92.7895,33.012],[-92.432,33.0125],[-91.8955,33.013],[-91.538,33.0135],[-91.1665,33.0145]]},"properties":{"kind":"state"}},
{"type":"Feature","geometry":{"type":"LineString","coordinates":[[-91.1665,33.0145],[-91.168,32.9815],[-91.149,32.9645],[-91.104,32.9535],[-91.072,32.923],[-91.096,32.888],[-91.1335,32.8585],[-91.1575,32.771],[-91.142,32.7475],[-91.093,32.7405],[-91.07,32.711],[-91.086,32.69],[-91.1575,32.6805],[-91.168,32.666],[-91.161,32.6255],[-91.141,32.595],[-91.097,32.555],[-91.109,32.4815],[-91.093,32.451],[-91.029,32.423],[-91.006,32.4045],[-90.9975,32.3645],[-90.974,32.352],[-90.9165,32.34],[-90.921,32.3],[-90.9665,32.2615],[-90.998,32.198],[-91.0325,32.1475],[-91.086,32.149],[-91.099,32.1145],[-91.069,32.0845],[-91.069,32.048],[-91.0915,32.014],[-91.1585,31.9835],[-91.1925,31.94],[-91.2575,31.8815],[-91.336,31.858],[-91.3605,31.8235],[-91.3735,31.786],[-91.404,31.7385],[-91.4355,31.573],[-91.506,31.53],[-91.529,31.5005],[-91.5245,31.457],[-91.4955,31.4115],[-91.5225,31.309],[-91.541,31.2825],[-91.633,31.2785],[-91.6495,31.2555],[-91.6045,31.2055],[-91.6275,31.142],[-91.616,31.114],[-91.585,31.082],[-91.579,31.056],[-91.6575,31],[-91.3255,31],[-91.039,31],[-90.7105,31],[-90.0955,31],[-89.7355,31],[-89.739,30.9505],[-89.775,30.878],[-89.791,30.8195],[-89.8245,30.777],[-89.818,30.758],[-89.846,30.6825],[-89.813,30.635],[-89.8255,30.614],[-89.7995,30.566],[-89.736,30.5315],[-89.7225,30.5005],[-89.694,30.4835],[-89.6775,30.457],[-89.6745,30.415],[-89.6395,30.3605],[-89.6365,30.3025],[-89.588,30.212],[-89.565,30.189],[-89.526,30.193]]},"properties":{"kind":"state"}},
{"type":"Feature","geometry":{"type":"LineString","coordinates":[[-91.1665,33.0145],[-91.1615,33.1185],[-91.1525,33.131],[-91.099,33.1495],[-91.093,33.1675],[-91.1065,33.218],[-91.1075,33.268],[-91.126,33.289],[-91.168,33.3005],[-91.182,33.32],[-91.134,33.3825],[-91.125,33.431],[-91.127,33.478],[-91.181,33.521],[-91.216,33.534],[-91.2355,33.567],[-91.1735,33.5775],[-91.1475,33.6085],[-91.1515,33.6335],[-91.209,33.6635],[-91.226,33.69],[-91.1925,33.708],[-91.153,33.752],[-91.1065,33.7865],[-91.0585,33.7935],[-91.0455,33.8145],[-91.0695,33.8835],[-91.0355,33.9305],[-91.052,33.958],[-91.089,33.9755],[-91.0845,33.9965],[-91.031,34.0065],[-90.975,34.0305],[-90.909,34.0355],[-90.88,34.061],[-90.8825,34.0995],[-90.955,34.129],[-90.956,34.157],[-90.8645,34.2065],[-90.821,34.2855],[-90.775,34.2795],[-90.7505,34.321],[-90.764,34.3755],[-90.686,34.3725],[-90.6265,34.396],[-90.594,34.425],[-90.576,34.5735],[-90.594,34.6425],[-90.5855,34.6845],[-90.5535,34.74],[-90.478,34.7375],[-90.4545,34.7595],[-90.4755,34.815],[-90.464,34.828],[-90.3525,34.864],[-90.3055,34.889],[-90.272,34.923],[-90.2705,34.9655],[-90.304,35]]},"properties":{"kind":"state"}},
{"type":"Feature","geometry":{"type":"LineString","coordinates":[[-90.304,35],[-89.784,34.9995],[-89.2645,34.999],[-88.8745,34.9985],[-88.6145,34.998],[-88.179,34.998]]},"properties":{"kind":"state"}},
{"type":"Feature","geometry":{"type":"LineString","coordinates":[[-88.179,34.998],[-88.1615,34.9575],[-88.1375,34.9285],[-88.0895,34.892],[-88.12,34.6615],[-88.1695,34.284],[-88.2355,33.785],[-88.3085,33.234],[-88.379,32.7],[-88.438,32.253],[-88.486,31.8895],[-88.4705,31.608],[-88.4495,31.2325],[-88.4285,30.857],[-88.402,30.388]]},"properties":{"kind":"state"}},
{"type":"Feature","geometry":{"type":"LineString","coordinates":[[-88.179,34.998],[-88.1855,35.0095],[-87.8245,35.0065],[-87.5145,35.0055],[-87.0415,34.9955],[-86.7265,34.99],[-86.4115,34.99],[-85.9425,34.989],[-85.6055,34.985]]},"properties":{"kind":"state"}},
{"type":"Feature","geometry":{"type":"LineString","coordinates":[[-85.6055,34.985],[-85.5625,34.7525],[-85.459,34.272],[-85.405,33.9915],[-85.35,33.7115],[-85.268,33.2985],[-85.257,33.231],[-85.1985,32.9445],[-85.2015,32.935],[-85.1685,32.863],[-85.1675,32.8175],[-85.1305,32.779],[-85.102,32.683],[-85.1035,32.6525],[-85.0835,32.6155],[-85.003,32.523],[-84.994,32.478],[-84.9675,32.4335],[-84.9735,32.375],[-84.9955,32.355],[-84.9725,32.3205],[-84.9245,32.297],[-84.9005,32.261],[-84.9225,32.2295],[-84.9875,32.1895],[-85.0175,32.1835],[-85.0475,32.1375],[-85.051,32.0915],[-85.0645,32.051],[-85.0605,32.004],[-85.122,31.903],[-85.144,31.824],[-85.1095,31.6925],[-85.058,31.6165],[-85.0425,31.5355],[-85.0655,31.472],[-85.0555,31.4435],[-85.0765,31.4195],[-85.0895,31.3065],[-85.11,31.2715],[-85.097,31.2345],[-85.101,31.1825],[-85.0695,31.161],[-85.018,31.087],[-84.994,31.019],[-85.0065,31]]},"properties":{"kind":"state"}},
{"type":"Feature","geometry":{"type":"MultiLineString","coordinates":[[[-85.0065,31],[-85.642,31],[-85.96,31],[-86.2775,31],[-86.5955,31],[-86.913,31],[-87.231,31],[-87.5935,30.9995],[-87.5985,30.939],[-87.627,30.873],[-87.5995,30.831],[-87.5515,30.79],[-87.525,30.7495],[-87.497,30.7225],[-87.4165,30.68],[-87.4045,30.6455],[-87.4195,30.5845],[-87.4415,30.545],[-87.4195,30.4795]],[[-87.4475,30.313],[-87.4465,30.298]]]},"properties":{"kind":"state"}},
{"type":"Feature","geometry":{"type":"LineString","coordinates":[[-85.0065,31],[-84.98,30.9635],[-84.966,30.9225],[-84.944,30.8915],[-84.9205,30.76],[-84.867,30.7205],[-84.5595,30.702],[-84.2145,30.682],[-83.9035,30.6635],[-83.5705,30.6435],[-83.0205,30.611],[-82.5595,30.5835],[-82.24,30.5645],[-82.24,30.527],[-82.2075,30.4855],[-82.2125,30.4195],[-82.1975,30.3825],[-82.166,30.3645],[-82.12,30.3695],[-82.085,30.3625],[-82.0485,30.3755],[-82.045,30.4375],[-82.025,30.5],[-82.012,30.588],[-82.0475,30.65],[-82.0415,30.7365],[-82.0085,30.7855],[-81.9765,30.786],[-81.9695,30.8105],[-81.909,30.8185],[-81.873,30.7985],[-81.782,30.766],[-81.75,30.7635],[-81.709,30.741],[-81.632,30.729],[-81.567,30.7095],[-81.5255,30.718],[-81.5,30.712]]},"properties":{"kind":"state"}},
{"type":"Feature","geometry":{"type":"LineString","coordinates":[[-85.6055,34.985],[-85.3725,34.9835],[-84.87,34.9885],[-84.4125,34.9885],[-84.3245,34.987]]},"properties":{"kind":"state"}},
{"type":"Feature","geometry":{"type":"LineString","coordinates":[[-84.3245,34.987],[-83.7955,34.993],[-83.3415,34.998],[-83.115,35.0005]]},"properties":{"kind":"state"}},
{"type":"Feature","geometry":{"type":"LineString","coordinates":[[-83.115,35.0005],[-83.1345,34.9425],[-83.1585,34.935],[-83.266,34.848],[-83.308,34.82],[-83.3245,34.7765],[-83.346,34.7505],[-83.3555,34.7085],[-83.324,34.6715],[-83.199,34.609],[-83.1755,34.6145],[-83.159,34.587],[-83.1215,34.57],[-83.0795,34.535],[-83.047,34.4965],[-83.015,34.4815],[-82.8995,34.483],[-82.8575,34.4605],[-82.8275,34.375],[-82.7615,34.293],[-82.7345,34.1845],[-82.7055,34.1475],[-82.6505,34.1085],[-82.6315,34.067],[-82.5995,34.0455],[-82.5705,33.968],[-82.522,33.9515],[-82.465,33.8945],[-82.3635,33.8435],[-82.2725,33.778],[-82.2455,33.7505],[-82.233,33.706],[-82.194,33.6345],[-82.129,33.595],[-82.0815,33.583],[-82.041,33.56],[-81.9985,33.5155],[-81.938,33.476],[-81.924,33.4585],[-81.936,33.407],[-81.931,33.361],[-81.8885,33.3185],[-81.8415,33.3135],[-81.8345,33.2675],[-81.8175,33.2245],[-81.7705,33.21],[-81.7595,33.156],[-81.724,33.131],[-81.636,33.1005],[-81.567,33.0575],[-81.5175,33.0395],[-81.492,32.9855],[-81.5005,32.9315],[-81.4375,32.848],[-81.424,32.79],[-81.4025,32.745],[-81.416,32.702],[-81.396,32.6735],[-81.406,32.6245],[-81.3655,32.5865],[-81.315,32.573],[-81.239,32.526],[-81.2285,32.496],[-81.201,32.4845],[-81.1975,32.4365],[-81.167,32.3545],[-81.1395,32.3385],[-81.13,32.3],[-81.1565,32.194],[-81.1315,32.131],[-81.078,32.087],[-81.02,32.091],[-80.958,32.071],[-80.9445,32.0495],[-80.8905,32.0325]]},"properties":{"kind":"state"}},
{"type":"Feature","geometry":{"type":"LineString","coordinates":[[-83.115,35.0005],[-83.0965,35.0005],[-82.804,35.081],[-82.742,35.077],[-82.69,35.106],[-82.6755,35.1275],[-82.638,35.131],[-82.554,35.159],[-82.5105,35.1605],[-82.479,35.176],[-82.443,35.1765],[-82.4245,35.1975],[-82.3845,35.218],[-82.363,35.2],[-82.287,35.206],[-81.7645,35.1835],[-81.4045,35.168],[-81.0735,35.154],[-81.038,35.13],[-81.0525,35.074],[-81.0275,35.0615],[-80.945,35.11],[-80.927,35.108],[-80.793,34.9615],[-80.7885,34.9495],[-80.7925,34.846],[-80.776,34.8255],[-80.146,34.814],[-79.704,34.806],[-79.6535,34.7955],[-79.2285,34.4365],[-78.8355,34.104],[-78.573,33.8825]]},"properties":{"kind":"state"}},
{"type":"Feature","geometry":{"type":"LineString","coordinates":[[-84.3245,34.987],[-84.3005,35.2085],[-84.261,35.2555],[-84.2315,35.267],[-84.2,35.2535],[-84.095,35.258],[-84.046,35.3015],[-84.0445,35.3335],[-84.0185,35.3745],[-84.0115,35.4245],[-83.9725,35.4535],[-83.9305,35.4655],[-83.88,35.5165],[-83.8315,35.5265],[-83.7745,35.556],[-83.728,35.5665],[-83.593,35.571],[-83.565,35.5595],[-83.499,35.57],[-83.438,35.6145],[-83.384,35.633],[-83.345,35.663],[-83.295,35.669],[-83.244,35.7165],[-83.177,35.7525],[-83.0755,35.7895],[-82.9825,35.788],[-82.932,35.843],[-82.9055,35.8945],[-82.917,35.9205],[-82.9075,35.946],[-82.8785,35.9555],[-82.81,35.9335],[-82.775,35.978],[-82.7705,36],[-82.63,36.0575],[-82.5905,36.0295],[-82.6005,35.9995],[-82.5835,35.969],[-82.5445,35.966],[-82.4895,35.994],[-82.4395,36.0545],[-82.3945,36.0955],[-82.351,36.1165],[-82.2905,36.1345],[-82.261,36.135],[-82.199,36.1585],[-82.1445,36.1405],[-82.133,36.1135],[-82.0865,36.1005],[-82.0245,36.14],[-81.924,36.294],[-81.815,36.359],[-81.721,36.343],[-81.743,36.389],[-81.7405,36.4095],[-81.6985,36.488],[-81.715,36.5265],[-81.659,36.6095]]},"properties":{"kind":"state"}},
{"type":"Feature","geometry":{"type":"MultiLineString","coordinates":[[[-81.659,36.6095],[-81.6195,36.594],[-81.2275,36.5695],[-80.677,36.562],[-80.0895,36.54],[-79.495,36.5415],[-78.9835,36.5425],[-78.3635,36.5425],[-77.8985,36.5425],[-77.529,36.545],[-77.036,36.549],[-76.381,36.553],[-76.0315,36.5505]],[[-76.0135,36.55],[-75.967,36.55]],[[-75.943,36.5495],[-75.909,36.5495]],[[-75.8805,36.5495],[-75.853,36.549]]]},"properties":{"kind":"state"}},
{"type":"Feature","geometry":{"type":"LineString","coordinates":[[-81.659,36.6095],[-81.9055,36.6175],[-81.9525,36.597],[-82.4175,36.599],[-82.834,36.6005],[-83.355,36.6025],[-83.6675,36.604]]},"properties":{"kind":"state"}},
{"type":"Feature","geometry":{"type":"LineString","coordinates":[[-83.6675,36.604],[-83.6235,36.6345],[-83.509,36.6685],[-83.413,36.6765],[-83.3425,36.7095],[-83.2395,36.737],[-83.137,36.75],[-83.0825,36.8345],[-83.05,36.856],[-83.0075,36.8565],[-82.8845,36.8945],[-82.859,36.9145],[-82.8545,36.972],[-82.8155,37.003],[-82.727,37.038],[-82.704,37.0685],[-82.708,37.113],[-82.6325,37.164],[-82.3755,37.2655],[-82.3515,37.2785],[-81.965,37.5385]]},"properties":{"kind":"state"}},
{"type":"Feature","geometry":{"type":"LineString","coordinates":[[-81.965,37.5385],[-81.954,37.5],[-81.9775,37.465],[-81.931,37.431],[-81.9325,37.3795],[-81.8755,37.3405],[-81.824,37.2865],[-81.7715,37.283],[-81.717,37.2415],[-81.6445,37.2095],[-81.584,37.205],[-81.5455,37.213],[-81.494,37.2575],[-81.424,37.2715],[-81.3965,37.291],[-81.3795,37.322],[-81.3425,37.334],[-81.302,37.296],[-81.25,37.2695],[-81.224,37.2445],[-81.132,37.2805],[-81.0285,37.291],[-80.992,37.3045],[-80.9485,37.295],[-80.8825,37.326],[-80.865,37.3465],[-80.881,37.3965],[-80.846,37.425],[-80.7995,37.4205],[-80.7845,37.401],[-80.731,37.385],[-80.6415,37.428],[-80.528,37.4685],[-80.487,37.468],[-80.481,37.4425],[-80.4525,37.4295],[-80.416,37.4545],[-80.2945,37.509],[-80.3075,37.548],[-80.3015,37.5705],[-80.2305,37.6105],[-80.2335,37.6395],[-80.2855,37.667],[-80.285,37.685],[-80.22,37.7815],[-80.207,37.815],[-80,38.0015],[-79.9435,38.0885],[-79.921,38.145],[-79.9165,38.179],[-79.792,38.28],[-79.7995,38.3055],[-79.7655,38.3585],[-79.731,38.375],[-79.6925,38.442],[-79.688,38.501],[-79.6625,38.5345],[-79.654,38.5805],[-79.636,38.592],[-79.5525,38.5675],[-79.505,38.505],[-79.5045,38.4785],[-79.2975,38.425],[-79.28,38.4305],[-79.2025,38.515],[-79.162,38.6125],[-79.146,38.6375],[-79.0965,38.672],[-79.086,38.7285],[-79.041,38.7975],[-78.988,38.8455],[-78.8805,38.787],[-78.862,38.793],[-78.743,38.93],[-78.7115,38.9155],[-78.6605,38.9345],[-78.6315,38.9725],[-78.581,38.9895],[-78.55,39.024],[-78.549,39.043],[-78.4925,39.101],[-78.453,39.1255],[-78.414,39.1665],[-78.4195,39.201],[-78.404,39.278],[-78.359,39.3315],[-78.351,39.3595],[-78.3575,39.4095],[-78.322,39.451],[-77.8355,39.144],[-77.7345,39.331]]},"properties":{"kind":"state"}},
{"type":"Feature","geometry":{"type":"MultiLineString","coordinates":[[[-77.7345,39.331],[-77.6645,39.324],[-77.5585,39.299],[-77.528,39.2655],[-77.4665,39.244],[-77.4595,39.2075],[-77.5075,39.1695],[-77.496,39.124],[-77.4215,39.074],[-77.3335,39.0675],[-77.2725,39.048],[-77.2505,39.0295],[-77.2335,38.9865],[-77.1465,38.9645],[-77.12,38.934]],[[-75.648,37.9655],[-75.6235,37.9945],[-75.3775,38.015]],[[-76.033,37.9545],[-76.0185,37.9545]],[[-76.007,37.9545],[-75.994,37.954]],[[-76.044,37.9545],[-76.033,37.9545]],[[-75.263,38.0225],[-75.2435,38.0245]]]},"properties":{"kind":"state"}},
{"type":"Feature","geometry":{"type":"LineString","coordinates":[[-77.12,38.934],[-77.097,38.908],[-77.0685,38.902]]},"properties":{"kind":"state"}},
{"type":"Feature","geometry":{"type":"LineString","coordinates":[[-77.12,38.934],[-77.042,38.996],[-76.9095,38.893],[-77.023,38.803]]},"properties":{"kind":"state"}},
{"type":"Feature","geometry":{"type":"LineString","coordinates":[[-77.7345,39.331],[-77.7515,39.351],[-77.739,39.406],[-77.7475,39.423],[-77.7935,39.4385],[-77.791,39.484],[-77.86,39.5155],[-77.8805,39.564],[-77.8375,39.581],[-77.847,39.6115],[-77.8825,39.6155],[-77.969,39.6015],[-78.011,39.618],[-78.087,39.6785],[-78.133,39.7015],[-78.1845,39.7045],[-78.2135,39.6935],[-78.28,39.6355],[-78.3405,39.642],[-78.434,39.624],[-78.406,39.594],[-78.4545,39.5865],[-78.438,39.5515],[-78.469,39.5335],[-78.5405,39.5415],[-78.5775,39.529],[-78.683,39.546],[-78.745,39.5755],[-78.739,39.6085],[-78.7785,39.637],[-78.8135,39.5865],[-78.8775,39.5215],[-78.969,39.4505],[-79.0645,39.4825],[-79.1025,39.4675],[-79.127,39.4305],[-79.1795,39.3865],[-79.2545,39.35],[-79.298,39.303],[-79.3475,39.2955],[-79.4595,39.217],[-79.488,39.21],[-79.4775,39.722]]},"properties":{"kind":"state"}},
{"type":"Feature","geometry":{"type":"MultiLineString","coordinates":[[[-75.7885,39.7215],[-75.7885,39.6475],[-75.764,39.355],[-75.7595,39.2815],[-75.7345,38.9895],[-75.6935,38.4605],[-75.4745,38.4535],[-75.084,38.4535]],[[-75.0575,38.4535],[-75.044,38.454]]]},"properties":{"kind":"state"}},
{"type":"Feature","geometry":{"type":"LineString","coordinates":[[-73.4805,42.0545],[-72.8615,42.037],[-72.8075,42.033],[-72.8065,42.007],[-72.7635,42.01],[-72.7575,42.033],[-72.211,42.0265],[-71.8015,42.0215],[-71.801,42.011]]},"properties":{"kind":"state"}},
{"type":"Feature","geometry":{"type":"LineString","coordinates":[[-71.801,42.011],[-71.7955,41.519],[-71.8045,41.4155],[-71.83,41.3915],[-71.845,41.3215],[-71.8605,41.3205]]},"properties":{"kind":"state"}},
{"type":"Feature","geometry":{"type":"MultiLineString","coordinates":[[[-71.801,42.011],[-71.387,42.016],[-71.3805,41.908],[-71.3375,41.8905],[-71.3405,41.797],[-71.324,41.778],[-71.268,41.75],[-71.237,41.7095]],[[-71.194,41.677],[-71.131,41.661],[-71.142,41.6065],[-71.131,41.5955],[-71.122,41.513]]]},"properties":{"kind":"state"}},
{"type":"Feature","geometry":{"type":"LineString","coordinates":[[-117.0165,41.9995],[-117.3895,41.9995],[-117.949,41.9995],[-118.322,41.9995],[-118.6945,41.9995],[-119.0675,41.9995],[-119.4405,41.9995],[-120.001,41.9995]]},"properties":{"kind":"state"}},
{"type":"Feature","geometry":{"type":"LineString","coordinates":[[-111.05,42],[-111.05,41.6875],[-111.05,41.4375],[-111.05,41],[-110.424,41],[-110.1735,41],[-109.6725,41],[-109.0465,41]]},"properties":{"kind":"state"}},
{"type":"Feature","geometry":{"type":"LineString","coordinates":[[-109.0465,41],[-109.0465,40.625],[-109.0465,40.375],[-109.0465,40],[-109.0465,39.75],[-109.0465,39.375],[-109.0465,39],[-109.0465,38.625],[-109.0465,38.375],[-109.0465,37.875],[-109.0465,37.5],[-109.0465,37]]},"properties":{"kind":"state"}},
{"type":"Feature","geometry":{"type":"LineString","coordinates":[[-114.04,37.003],[-114.0405,37.4715],[-114.0405,37.784],[-114.041,38.2525],[-114.041,38.721],[-114.0415,39.1895],[-114.0415,39.6575],[-114.0415,39.97],[-114.0415,40.2825],[-114.042,40.5945],[-114.042,40.907],[-114.042,41.2195],[-114.0425,41.5315],[-114.0425,42]]},"properties":{"kind":"state"}},
{"type":"Feature","geometry":{"type":"LineString","coordinates":[[-104.0565,45],[-104.0555,44.626],[-104.0555,44.25],[-104.0555,43.875],[-104.0545,43.3755],[-104.053,43.0005]]},"properties":{"kind":"state"}},
{"type":"Feature","geometry":{"type":"LineString","coordinates":[[-104.053,43.0005],[-104.0525,42.6255],[-104.0525,42.125],[-104.053,41.875],[-104.0525,41.5],[-104.0535,41]]},"properties":{"kind":"state"}},
{"type":"Feature","geometry":{"type":"LineString","coordinates":[[-104.0535,41],[-104.6495,41],[-105.1205,41],[-105.592,41],[-106.063,41],[-106.691,41],[-107.005,41],[-107.476,41],[-107.79,41],[-108.2615,41],[-108.7325,41],[-109.0465,41]]},"properties":{"kind":"state"}},
{"type":"Feature","geometry":{"type":"LineString","coordinates":[[-104.0535,41],[-103.5455,40.9995],[-103.0695,40.9995],[-102.831,40.9995],[-102.355,40.9995],[-102.052,40.9995],[-102.0515,40.687],[-102.0515,40.3125],[-102.0515,40]]},"properties":{"kind":"state"}},
{"type":"Feature","geometry":{"type":"LineString","coordinates":[[-102.0515,40],[-102.05,39.625],[-102.049,39.344],[-102.047,38.875],[-102.046,38.5935],[-102.0445,38.2185],[-102.043,37.8435],[-102.0415,37.4685],[-102.0395,37]]},"properties":{"kind":"state"}},
{"type":"Feature","geometry":{"type":"LineString","coordinates":[[-102.0395,37],[-102.507,37],[-103.001,37]]},"properties":{"kind":"state"}},
{"type":"Feature","geometry":{"type":"LineString","coordinates":[[-96.4535,43.5],[-96.5955,43.499],[-96.5925,43.4425],[-96.5355,43.3855],[-96.5365,43.299],[-96.5785,43.2775],[-96.556,43.2545],[-96.5645,43.2235],[-96.481,43.2165],[-96.4555,43.1215],[-96.474,43.069],[-96.5075,43.0455],[-96.499,43.018],[-96.511,42.9655],[-96.5375,42.932],[-96.542,42.896],[-96.5635,42.8445],[-96.583,42.838],[-96.6225,42.7885],[-96.638,42.751],[-96.5975,42.7005],[-96.523,42.649],[-96.54,42.6275],[-96.504,42.6],[-96.482,42.5535],[-96.4825,42.5185]]},"properties":{"kind":"state"}},
{"type":"Feature","geometry":{"type":"LineString","coordinates":[[-96.4825,42.5185],[-96.6115,42.5345],[-96.6395,42.556],[-96.6525,42.5915],[-96.6935,42.615],[-96.709,42.6775],[-96.7995,42.687],[-96.857,42.74],[-96.947,42.745],[-96.9925,42.769],[-97.0515,42.784],[-97.1275,42.7895],[-97.1715,42.81],[-97.238,42.8645],[-97.301,42.887],[-97.5005,42.86],[-97.5995,42.8735],[-97.661,42.854],[-97.7295,42.8675],[-97.7705,42.86],[-97.839,42.8715],[-97.8865,42.8575],[-97.911,42.8095],[-97.942,42.7885],[-98.007,42.784],[-98.0785,42.8025],[-98.1045,42.8285],[-98.243,42.8725],[-98.326,42.921],[-98.349,42.9235],[-98.454,42.9745],[-98.485,43],[-99.088,43],[-99.429,43],[-100.1105,43],[-100.451,43],[-100.962,43.0005],[-101.4735,43.0005],[-102.155,43.0005],[-102.4955,43.0005],[-103.0065,43.0005],[-103.688,43.0005],[-104.053,43.0005]]},"properties":{"kind":"state"}},
{"type":"Feature","geometry":{"type":"LineString","coordinates":[[-96.4825,42.5185],[-96.3975,42.4965],[-96.3835,42.4555],[-96.402,42.369],[-96.3425,42.3],[-96.335,42.26],[-96.3515,42.2055],[-96.328,42.166],[-96.2765,42.1365],[-96.2655,42.1195],[-96.2605,42.058],[-96.2325,42.029],[-96.1545,41.988],[-96.143,41.948],[-96.1565,41.919],[-96.133,41.866],[-96.074,41.819],[-96.064,41.796],[-96.079,41.7205],[-96.101,41.6895],[-96.102,41.647],[-96.078,41.599],[-96.082,41.55],[-96.061,41.5375],[-96.02,41.551],[-95.9875,41.534],[-96.0065,41.4925],[-95.9865,41.474],[-95.931,41.465],[-95.9345,41.4025],[-95.958,41.3385],[-95.879,41.318],[-95.8845,41.2895],[-95.917,41.2665],[-95.924,41.2075],[-95.8655,41.184],[-95.876,41.167],[-95.8625,41.1055],[-95.8825,41.071],[-95.8645,41.043],[-95.871,41.012],[-95.8385,40.9825],[-95.84,40.9385],[-95.825,40.889],[-95.842,40.828],[-95.8275,40.794],[-95.8625,40.7585],[-95.8695,40.729],[-95.8445,40.688],[-95.773,40.6605],[-95.7675,40.6005]]},"properties":{"kind":"state"}},
{"type":"Feature","geometry":{"type":"LineString","coordinates":[[-95.7675,40.6005],[-95.768,40.5485],[-95.696,40.5185],[-95.698,40.482],[-95.664,40.434],[-95.6595,40.3985],[-95.629,40.3455],[-95.65,40.311],[-95.595,40.3105],[-95.5465,40.262],[-95.4955,40.254],[-95.4675,40.238],[-95.485,40.201],[-95.437,40.1425],[-95.404,40.114],[-95.4195,40.045],[-95.3615,40.0265],[-95.3175,40]]},"properties":{"kind":"state"}},
{"type":"Feature","geometry":{"type":"LineString","coordinates":[[-95.3175,40],[-95.946,40],[-96.3655,40],[-96.994,40],[-97.4135,40],[-98.042,40],[-98.461,40],[-99.09,40],[-99.719,40],[-100.138,40],[-100.557,40],[-100.9765,40],[-101.3955,40],[-102.0515,40]]},"properties":{"kind":"state"}},
{"type":"Feature","geometry":{"type":"LineString","coordinates":[[-95.3175,40],[-95.2475,39.944],[-95.2145,39.937],[-95.191,39.9065],[-95.139,39.893],[-95.1125,39.8685],[-95.068,39.8655],[-95.002,39.903],[-94.948,39.9015],[-94.936,39.8515],[-94.8825,39.821],[-94.889,39.7795],[-94.8725,39.7535],[-94.891,39.7295],[-94.961,39.742],[-94.9805,39.696],[-95.0375,39.656],[-95.0605,39.6215],[-95.06,39.589],[-95.109,39.571],[-95.099,39.53],[-95.064,39.5085],[-95.0255,39.454],[-94.9575,39.42],[-94.944,39.3925],[-94.9085,39.367],[-94.901,39.327],[-94.879,39.2875],[-94.835,39.2595],[-94.8295,39.2175],[-94.724,39.173],[-94.663,39.173],[-94.6125,39.153],[-94.6175,39.123],[-94.618,38.66],[-94.618,38.4045],[-94.618,37.8935],[-94.618,37.383],[-94.618,37]]},"properties":{"kind":"state"}},
{"type":"Feature","geometry":{"type":"LineString","coordinates":[[-94.618,37],[-95.08,37],[-95.5425,37],[-96.0045,37],[-96.4665,37],[-96.929,37],[-97.391,37],[-97.853,37],[-98.3155,37],[-98.5465,37],[-99.0085,37],[-99.471,37],[-99.933,37],[-100.395,37],[-100.8575,37],[-101.3195,37],[-101.7815,37],[-102.0395,37]]},"properties":{"kind":"state"}},
{"type":"Feature","geometry":{"type":"LineString","coordinates":[[-94.618,37],[-94.6185,36.5]]},"properties":{"kind":"state"}},
{"type":"Feature","geometry":{"type":"LineString","coordinates":[[-94.6185,36.5],[-94.551,36.082],[-94.5065,35.804],[-94.439,35.386],[-94.4505,34.9515],[-94.4615,34.517],[-94.473,34.082],[-94.484,33.6475]]},"properties":{"kind":"state"}},
{"type":"Feature","geometry":{"type":"LineString","coordinates":[[-91.25,43.501],[-91.251,43.4745],[-91.197,43.366],[-91.111,43.34],[-91.0865,43.3175],[-91.085,43.28],[-91.1035,43.2495],[-91.1565,43.1955],[-91.168,43.1605],[-91.1625,43.0905],[-91.1475,42.9965],[-91.1465,42.9505],[-91.1305,42.9115],[-91.086,42.853],[-91.0795,42.792],[-91.0455,42.742],[-91.0105,42.7165],[-90.9665,42.7015],[-90.7955,42.677],[-90.703,42.6555],[-90.6265,42.5445],[-90.6415,42.512]]},"properties":{"kind":"state"}},
{"type":"Feature","geometry":{"type":"LineString","coordinates":[[-90.6415,42.512],[-90.654,42.49],[-90.549,42.4175],[-90.463,42.376],[-90.432,42.3525],[-90.4145,42.3185],[-90.403,42.2455],[-90.349,42.207],[-90.2365,42.161],[-90.1695,42.1165],[-90.165,42.075],[-90.1405,42.0305],[-90.1495,41.9765],[-90.167,41.9415],[-90.1745,41.8795],[-90.201,41.8135],[-90.277,41.7745],[-90.305,41.7485],[-90.3465,41.665],[-90.3465,41.6055],[-90.4055,41.5745],[-90.441,41.5435],[-90.483,41.531],[-90.603,41.5105],[-90.6615,41.462],[-90.7045,41.451],[-90.9915,41.4335],[-91.031,41.4135],[-91.055,41.383],[-91.091,41.3],[-91.099,41.2565],[-91.0825,41.19],[-90.9975,41.1465],[-90.9685,41.116],[-90.9515,41.0755],[-90.949,40.982],[-90.9665,40.946],[-91.0655,40.8585],[-91.0935,40.8235],[-91.1015,40.764],[-91.127,40.7015],[-91.153,40.6725],[-91.188,40.6535],[-91.298,40.633],[-91.3835,40.5985],[-91.4125,40.564],[-91.411,40.5455],[-91.3745,40.51],[-91.3825,40.393],[-91.442,40.3795]]},"properties":{"kind":"state"}},
{"type":"Feature","geometry":{"type":"LineString","coordinates":[[-91.442,40.3795],[-91.4935,40.403],[-91.5385,40.441],[-91.5455,40.4685],[-91.617,40.506],[-91.6275,40.5295],[-91.682,40.551],[-91.6965,40.588],[-91.7305,40.619],[-91.944,40.6055],[-92.347,40.6],[-92.534,40.5955],[-93.095,40.5815],[-93.5615,40.5855],[-94.016,40.575],[-94.4785,40.573],[-94.922,40.5815],[-95.372,40.592],[-95.7675,40.6005]]},"properties":{"kind":"state"}},
{"type":"Feature","geometry":{"type":"LineString","coordinates":[[-91.442,40.3795],[-91.473,40.358],[-91.496,40.3135],[-91.518,40.2215],[-91.519,40.175],[-91.4925,40.0095],[-91.446,39.948],[-91.4495,39.8655],[-91.3915,39.8035],[-91.375,39.7355],[-91.355,39.711],[-91.1045,39.533],[-91.051,39.4525],[-90.8195,39.32],[-90.774,39.279],[-90.73,39.201],[-90.73,39.146],[-90.7025,39.101],[-90.719,39.0665],[-90.7045,39.041],[-90.7025,38.9955],[-90.6575,38.921],[-90.6265,38.8905],[-90.5855,38.878],[-90.542,38.894],[-90.479,38.959],[-90.4285,38.9675],[-90.375,38.944],[-90.282,38.9265],[-90.1835,38.8825],[-90.1435,38.857],[-90.127,38.8305],[-90.1705,38.765],[-90.198,38.744],[-90.1965,38.638],[-90.2135,38.607],[-90.264,38.543],[-90.315,38.4315],[-90.363,38.369],[-90.382,38.3005],[-90.373,38.2545],[-90.3465,38.207],[-90.291,38.169],[-90.243,38.113],[-90.188,38.0835],[-90.111,38.0165],[-90.0755,38.008],[-90.005,37.9625],[-89.9225,37.9525],[-89.832,37.8845],[-89.722,37.837],[-89.6975,37.8095],[-89.669,37.7545],[-89.647,37.7335],[-89.5495,37.6975],[-89.531,37.6665],[-89.5165,37.614],[-89.527,37.562],[-89.502,37.507],[-89.451,37.4405],[-89.4415,37.3985],[-89.4585,37.3625],[-89.523,37.3065],[-89.5235,37.268],[-89.474,37.244],[-89.4725,37.214],[-89.4415,37.165],[-89.4015,37.12],[-89.387,37.0915],[-89.3935,37.0625],[-89.327,37.014],[-89.287,37.0005],[-89.273,37.026],[-89.298,37.049],[-89.302,37.081],[-89.26,37.083],[-89.246,37.0455],[-89.2085,37.0215],[-89.1975,36.9895],[-89.177,36.9785],[-89.1235,36.9795]]},"properties":{"kind":"state"}},
{"type":"Feature","geometry":{"type":"MultiLineString","coordinates":[[[-89.1235,36.9795],[-89.119,36.962],[-89.1255,36.877],[-89.1495,36.851],[-89.1495,36.8185],[-89.1345,36.7835],[-89.1405,36.7345],[-89.1805,36.6655],[-89.2055,36.6075],[-89.2535,36.569],[-89.2845,36.5775],[-89.359,36.638],[-89.386,36.61],[-89.4245,36.499]],[[-89.4945,36.5015],[-89.5025,36.5545],[-89.537,36.568],[-89.5695,36.5565],[-89.578,36.5215],[-89.56,36.5]]]},"properties":{"kind":"state"}},
{"type":"Feature","geometry":{"type":"MultiLineString","coordinates":[[[-89.4245,36.499],[-89.479,36.4525],[-89.505,36.458],[-89.4945,36.5015]],[[-89.56,36.5],[-89.5475,36.4815],[-89.556,36.4475],[-89.531,36.3835],[-89.5595,36.3515],[-89.6095,36.3495],[-89.626,36.323],[-89.592,36.288],[-89.5835,36.2545],[-89.6945,36.247],[-89.64,36.1825],[-89.614,36.1415],[-89.623,36.1235],[-89.674,36.102],[-89.7155,36.0345],[-89.724,36.0005]]]},"properties":{"kind":"state"}},
{"type":"Feature","geometry":{"type":"LineString","coordinates":[[-89.724,36.0005],[-90.3735,35.986],[-90.378,36.0055],[-90.3425,36.0615],[-90.2895,36.12],[-90.245,36.137],[-90.2155,36.1845],[-90.1435,36.2115],[-90.124,36.2525],[-90.08,36.2705],[-90.0675,36.2875],[-90.063,36.369],[-90.0825,36.3935],[-90.1225,36.4185],[-90.1285,36.453],[-90.162,36.5],[-90.5055,36.5],[-91.054,36.5],[-91.602,36.5],[-92.1505,36.5],[-92.699,36.5],[-93.2475,36.5],[-93.5215,36.5],[-94.07,36.5],[-94.6185,36.5]]},"properties":{"kind":"state"}},
{"type":"Feature","geometry":{"type":"LineString","coordinates":[[-87.804,42.492],[-88.1555,42.4945],[-88.51,42.497],[-88.8645,42.4995],[-89.396,42.503],[-89.928,42.507],[-90.2825,42.5095],[-90.6415,42.512]]},"properties":{"kind":"state"}},
{"type":"Feature","geometry":{"type":"LineString","coordinates":[[-87.521,41.7275],[-87.523,41.283],[-87.5245,40.993],[-87.526,40.7035],[-87.5275,40.4135],[-87.529,40.124],[-87.5305,39.834],[-87.5325,39.3615],[-87.597,39.335],[-87.6255,39.2995],[-87.598,39.2485],[-87.5985,39.2055],[-87.6635,39.1565],[-87.667,39.1185],[-87.6085,39.0735],[-87.5835,39.0015],[-87.5425,38.97],[-87.5365,38.9165],[-87.557,38.878],[-87.511,38.7635],[-87.548,38.683],[-87.5835,38.6795],[-87.615,38.6515],[-87.626,38.5975],[-87.667,38.5565],[-87.6465,38.52],[-87.7005,38.4815],[-87.7625,38.461],[-87.7525,38.4215],[-87.783,38.3855],[-87.826,38.3605],[-87.8445,38.318],[-87.8825,38.314],[-87.9155,38.285],[-87.9455,38.299],[-87.968,38.2545],[-87.992,38.233],[-87.9925,38.21],[-87.934,38.16],[-88.03,38.098],[-87.9825,38.094],[-87.9985,38.065],[-88.0455,38.0515],[-88.035,37.9735],[-88.0495,37.9615],[-88.038,37.9055],[-88.057,37.892],[-88.112,37.8985],[-88.046,37.8445],[-88.0455,37.8065]]},"properties":{"kind":"state"}},
{"type":"Feature","geometry":{"type":"LineString","coordinates":[[-88.0455,37.8065],[-88.0605,37.751],[-88.1325,37.6995],[-88.1635,37.64],[-88.14,37.5935],[-88.105,37.563],[-88.083,37.5195],[-88.091,37.4915],[-88.123,37.4745],[-88.307,37.448],[-88.3655,37.4215],[-88.465,37.409],[-88.4885,37.3845],[-88.508,37.3425],[-88.5125,37.3035],[-88.5035,37.267],[-88.434,37.1685],[-88.4335,37.1365],[-88.4545,37.096],[-88.4845,37.0725],[-88.5215,37.0675],[-88.561,37.077],[-88.633,37.115],[-88.907,37.22],[-88.9555,37.228],[-89.002,37.2235],[-89.0435,37.2085],[-89.0885,37.1745],[-89.1225,37.124],[-89.1785,37.0625],[-89.1765,37.036],[-89.1235,36.9795]]},"properties":{"kind":"state"}},
{"type":"Feature","geometry":{"type":"LineString","coordinates":[[-88.0455,37.8065],[-88.0225,37.8095],[-87.9695,37.786],[-87.946,37.7885],[-87.8995,37.8295],[-87.93,37.889],[-87.9265,37.9235],[-87.8875,37.9285],[-87.838,37.8895],[-87.797,37.878],[-87.7285,37.892],[-87.7035,37.9055],[-87.6735,37.8985],[-87.68,37.837],[-87.657,37.825],[-87.6015,37.857],[-87.591,37.8845],[-87.6185,37.9565],[-87.549,37.9135],[-87.51,37.92],[-87.4265,37.9465],[-87.359,37.9215],[-87.323,37.8995],[-87.2555,37.878],[-87.22,37.859],[-87.165,37.847],[-87.153,37.816],[-87.118,37.7885],[-87.0865,37.8055],[-87.043,37.892],[-87.0195,37.919],[-86.988,37.933],[-86.9295,37.9375],[-86.855,37.984],[-86.819,37.995],[-86.773,37.924],[-86.742,37.904],[-86.644,37.9015],[-86.663,37.864],[-86.6245,37.854],[-86.6035,37.8645],[-86.5895,37.9195],[-86.536,37.9285],[-86.5205,37.9535],[-86.5235,38.019],[-86.505,38.0495],[-86.461,38.0565],[-86.416,38.115],[-86.3505,38.1315],[-86.3435,38.186],[-86.2825,38.142],[-86.286,38.1],[-86.275,38.07],[-86.1835,38.023],[-86.111,38.0155],[-86.0515,37.9695],[-86.032,37.994],[-85.96,38.008],[-85.9245,38.038],[-85.9145,38.0635],[-85.9055,38.1595],[-85.8915,38.202],[-85.851,38.236],[-85.816,38.289],[-85.77,38.27],[-85.7205,38.279],[-85.665,38.3095],[-85.6435,38.3435],[-85.6195,38.432],[-85.59,38.461],[-85.5265,38.4685],[-85.482,38.5075],[-85.429,38.5385],[-85.41,38.572],[-85.431,38.611],[-85.44,38.6725],[-85.455,38.7075],[-85.436,38.7345],[-85.321,38.7435],[-85.2575,38.741],[-85.186,38.6935],[-85.1455,38.7005],[-84.9995,38.7715],[-84.9015,38.796],[-84.8195,38.7895],[-84.82,38.828],[-84.784,38.893],[-84.849,38.901],[-84.8775,38.9195],[-84.833,38.957],[-84.828,38.9915],[-84.8705,39.0295],[-84.873,39.0615],[-84.8235,39.0975]]},"properties":{"kind":"state"}},
{"type":"Feature","geometry":{"type":"LineString","coordinates":[[-82.5895,38.4195],[-82.594,38.376],[-82.5675,38.309],[-82.572,38.2475],[-82.5955,38.2385],[-82.602,38.2005],[-82.637,38.1715],[-82.631,38.153],[-82.556,38.068],[-82.5335,38.029],[-82.479,37.9905],[-82.4655,37.968],[-82.483,37.9415],[-82.4175,37.8875],[-82.399,37.823],[-82.3365,37.772],[-82.317,37.747],[-82.2965,37.6885],[-82.181,37.63],[-82.116,37.5635],[-82.037,37.5435],[-81.995,37.548],[-81.965,37.5385]]},"properties":{"kind":"state"}},
{"type":"Feature","geometry":{"type":"MultiLineString","coordinates":[[[-83.6675,36.604],[-83.7305,36.586],[-84.1985,36.599],[-84.6285,36.611],[-85.1215,36.625],[-85.4265,36.6185],[-85.634,36.6225],[-86.067,36.6345],[-86.217,36.6425],[-86.464,36.6625],[-86.552,36.657],[-87.0825,36.6515],[-87.515,36.6475],[-87.8335,36.644],[-87.8685,36.674],[-88.067,36.6895],[-88.0715,36.673],[-88.0405,36.574],[-88.0425,36.4985],[-88.561,36.499],[-88.9065,36.499],[-89.4245,36.499]],[[-89.4945,36.5015],[-89.56,36.5]]]},"properties":{"kind":"state"}},
{"type":"Feature","geometry":{"type":"LineString","coordinates":[[-89.724,36.0005],[-89.707,35.9675],[-89.6805,35.946],[-89.6675,35.915],[-89.6895,35.8995],[-89.719,35.9185],[-89.7595,35.909],[-89.784,35.8775],[-89.731,35.852],[-89.722,35.8335],[-89.785,35.791],[-89.938,35.7365],[-89.953,35.705],[-89.91,35.652],[-89.91,35.639],[-89.9515,35.6025],[-89.918,35.548],[-89.928,35.5355],[-90,35.522],[-90.0125,35.5115],[-90.0225,35.4525],[-90.05,35.422],[-90.103,35.3855],[-90.12,35.3465],[-90.1145,35.2805],[-90.0845,35.189],[-90.0855,35.1485],[-90.106,35.1235],[-90.178,35.13],[-90.197,35.076],[-90.222,35.048],[-90.3015,35.02],[-90.304,35]]},"properties":{"kind":"state"}}
]}